ONEWEB-0531             
1 54146U 22138AK  25299.14402602 -.00000024  00000+0 -90013-4 0  9996
2 54146  87.9198 321.1120 0002380  73.8748 286.2647 13.20771708148413
ONEWEB-0535             
1 54147U 22138AL  25299.10868138  .00000133  00000+0  29874-3 0  9998
2 54147  87.9254 351.5143 0001832  87.0564 273.0778 13.19725754145967
ONEWEB-0536             
1 54148U 22138AM  25299.13139163 -.00000040  00000+0 -12917-3 0  9990
2 54148  87.9192 321.1614 0002626  74.8203 285.3221 13.20770132148404
ONEWEB-0527             
1 54642U 22166A   25299.04173703  .00000026  00000+0  32067-4 0  9999
2 54642  87.9168 290.7150 0001955  90.1899 269.9458 13.21826645140604
ONEWEB-0528             
1 54643U 22166B   25299.04831297 -.00000220  00000+0 -56470-3 0  9990
2 54643  87.9170 290.7176 0001911  90.5948 269.5404 13.21824644140612
ONEWEB-0539             
1 54644U 22166C   25298.93479522  .00001485  00000+0  35640-2 0  9994
2 54644  87.9158 290.7071 0001785  90.6641 269.4698 13.21820174140598
ONEWEB-0540             
1 54645U 22166D   25299.01720434  .00000080  00000+0  16206-3 0  9994
2 54645  87.9166 290.7285 0001657  90.4398 269.6925 13.21823858140597
ONEWEB-0542             
1 54646U 22166E   25299.02035647  .00000812  00000+0  19341-2 0  9996
2 54646  87.9165 290.6874 0001423  86.2831 273.8466 13.21817632140608
